RADUGA 5                
1 11343U 79035A   24181.91994187 -.00000178  00000+0  00000+0 0  9995
2 11343   7.0885 290.4523 0006265 193.1925 210.7070  1.00281878122160
GORIZONT 2              
1 11440U 79062A   24181.90548663  .00000040  00000+0  00000+0 0  9993
2 11440   7.5040 293.3978 0002043 292.9273  79.8412  1.00254643130811
WESTAR 3                
1 11484U 79072A   24181.74179186 -.00000291  00000+0  00000+0 0  9993
2 11484  11.4115 325.9967 0001799 174.2829   3.0396  0.99952364133345
EKRAN 4                 
1 11561U 79087A   24181.80485984 -.00000244  00000+0  00000+0 0  9996
2 11561   7.3714 292.4467 0014550 173.2929 195.4107  1.00242921 40181
SL-12 R/B(2)            
1 11568U 75123F   24181.89706946  .00000146  00000+0  00000+0 0  9993
2 11568   4.3974 276.4714 0017273 193.5312 150.3830  1.00492018114781
EKRAN 2 DEB             
1 11581U 77092H   24181.69483235 -.00000334  00000+0  00000+0 0  9996
2 11581   5.9802 283.6708 0015610 205.2839 168.4782  1.00257312 97179
GORIZONT 3              
1 11648U 79105A   24181.97267059  .00000152  00000+0  00000+0 0  9999
2 11648   7.6786 295.0224 0012639 235.0933 138.2895  1.00262670115261
OPS 6393 (FLTSATCOM 3)  
1 11669U 80004A   24181.81034314 -.00000289  00000+0  00000+0 0  9993
2 11669   7.6631 310.0682 0024288 220.8801 342.0989  1.00350234162768
SL-12 R/B(2)            
1 11676U 75097F   24181.72316903  .00000111  00000+0  00000+0 0  9997
2 11676   4.2168 274.9057 0025046 200.6572 287.6022  1.00100109111953
RADUGA 6                
1 11708U 80016A   24181.90157060  .00000148  00000+0  00000+0 0  9997
2 11708   7.4775 293.9502 0002358 224.3885 126.1624  1.00271729114961
RADUGA 7                
1 12003U 80081A   24181.63799443  .00000129  00000+0  00000+0 0  9994
2 12003   7.6834 296.1606 0009243 280.2959 131.1253  1.00214516116115
SBS 1                   
1 12065U 80091A   24181.80747139 -.00000227  00000+0  00000+0 0  9997
2 12065  11.2340 322.8121 0011572 162.6591  11.6235  0.99819106 39319
EKRAN 6                 
1 12120U 80104A   24181.90487747  .00000055  00000+0  00000+0 0  9999
2 12120   7.9650 297.4703 0005253  89.6447 275.4643  1.00307880120203
ESIAFI 1 (COMSTAR 4)    
1 12309U 81018A   24180.91460753 -.00000047  00000+0  00000+0 0  9993
2 12309  10.0903 316.2362 0004189 118.9086 241.1892  1.00274935160249
SL-12 R/B(2)            
1 12447U 80081F   24181.76141970 -.00000349  00000+0  00000+0 0  9991
2 12447   7.9027 297.0866 0003321  61.0201 323.2884  0.99970581157216
GOES 5                  
1 12472U 81049A   24181.49733083  .00000081  00000+0  00000+0 0  9998
2 12472  10.6476 320.6115 0001498 211.7998 146.6490  1.00301895115643
APPLE                   
1 12545U 81057B   24181.86931480 -.00000213  00000+0  00000+0 0  9998
2 12545   8.6798 302.9629 0029429 203.2932 179.3108  1.00025806115216
EKRAN 7                 
1 12564U 81061A   24181.90888050 -.00000110  00000+0  00000+0 0  9999
2 12564   8.2204 299.5884 0003777  89.6149 295.1602  1.00215139122318
RADUGA 9                
1 12618U 81069A   24181.90070038  .00000152  00000+0  00000+0 0  9991
2 12618   8.2779 300.0365 0004259 171.3180 168.3500  1.00245254 40146
SBS 2                   
1 12855U 81096A   24181.50466102  .00000097  00000+0  00000+0 0  9999
2 12855  11.4050 326.3300 0007476 192.9983 352.8584  1.00114749111427
RADUGA 10               
1 12897U 81102A   24181.90853241 -.00000113  00000+0  00000+0 0  9991
2 12897   8.3790 301.1474 0005391 202.6057 178.9252  1.00295883110211
SATCOM 3R               
1 12967U 81114A   24181.47407742 -.00000124  00000+0  00000+0 0  9997
2 12967  12.9286 336.9794 0001211 233.7956 138.5314  1.00094165120886
EKRAN 2 DEB             
1 12996U 77092J   24181.63982810 -.00000102  00000+0  00000+0 0  9997
2 12996   6.1476 284.3256 0018064 245.0710 144.3227  1.00060319 77334
WESTAR 4                
1 13069U 82014A   24181.18625755 -.00000130  00000+0  00000+0 0  9992
2 13069  13.3832 340.0625 0002678 197.0408 165.9043  0.99777846 39280
INSAT-1A                
1 13129U 82031A   24181.81901076 -.00000335  00000+0  00000+0 0  9998
2 13129   8.7512 304.3627 0012837  99.1869 277.1032  1.00209580159247
COSMOS 1366             
1 13177U 82044A   24181.91983484 -.00000158  00000+0  00000+0 0  9992
2 13177   9.9328 304.2458 0009479 124.5174 262.8355  1.00277481126393
ANIK D1 (TELESAT 6)     
1 13431U 82082A   24181.77710049 -.00000344  00000+0  00000+0 0  9993
2 13431  13.0163 337.9951 0001659 335.4315  20.0506  1.00131755 39413
EKRAN 9                 
1 13554U 82093A   24181.90714005 -.00000025  00000+0  00000+0 0  9998
2 13554   8.6874 305.3312 0024499 353.4782  15.8674  1.00206349112796
GORIZONT 6              
1 13624U 82103A   24182.15118622 -.00000223  00000+0  00000+0 0  9999
2 13624   8.9051 307.3720 0000810 221.6895 133.3779  1.00266657113758
SL-12 R/B(2)            
1 13630U 82103E   24181.87630609 -.00000221  00000+0  00000+0 0  9996
2 13630   8.8654 307.2702 0014812 174.0294  27.1984  1.00397177114305
SATCOM C5               
1 13631U 82105A   24181.51473465 -.00000118  00000+0  00000+0 0  9990
2 13631  12.9174 337.5475 0005482 101.8303 279.5115  1.00273469119181
SBS 3                   
1 13651U 82110B   24181.51331950 -.00000051  00000+0  00000+0 0  9996
2 13651  13.2652 339.4770 0010231 117.3519 258.5975  0.99920160 39373
ANIK C3 (TELESAT 5)     
1 13652U 82110C   24181.13938376  .00000023  00000+0  00000+0 0  9998
2 13652  13.2463 339.2857 0004020 131.8591  46.1335  0.99913072 39339
RADUGA 12               
1 13974U 83028A   24181.90626983 -.00000002  00000+0  00000+0 0  9995
2 13974   9.6826 311.6785 0001879 140.7134 217.5521  1.00267816162185
SL-12 R/B(2)            
1 13983U 83028F   24181.56438360  .00000055  00000+0  00000+0 0  9994
2 13983   9.7151 311.7454 0027035 200.1862 156.8085  1.00061043150622
SATCOM 1R               
1 13984U 83030A   24181.81208359 -.00000302  00000+0  00000+0 0  9995
2 13984  13.8332 343.7326 0011122 122.5197  55.8621  0.99855999123319
GOES 6                  
1 14050U 83041A   24182.01189850 -.00000001  00000+0  00000+0 0  9995
2 14050  11.3398 326.0892 0004056 175.1323  18.7726  1.00315907208865
SL-12 R/B(2)            
1 14114U 82044F   24181.70646067 -.00000281  00000+0  00000+0 0  9991
2 14114   9.8291 303.5984 0018730 180.1740 189.2995  1.00246477 40158
PALAPA B1               
1 14134U 83059C   24181.50856767 -.00000020  00000+0  00000+0 0  9999
2 14134  12.4994 334.4853 0005521 124.8530 244.8868  1.00143008113608
GALAXY 1 (G-1)          
1 14158U 83065A   24181.87839463 -.00000259  00000+0  00000+0 0  9990
2 14158  14.1146 347.0103 0002750 152.7097  19.6599  1.00114417 39449
SL-12 R/B(2)            
1 14195U 81102F   24182.07594771 -.00000053  00000+0  00000+0 0  9996
2 14195   8.2833 300.7306 0011620 199.4328 160.6197  1.00223287115799
INSAT-1B                
1 14318U 83089B   24181.76229970  .00000109  00000+0  00000+0 0  9991
2 14318  12.1549 331.9686 0012584 201.0855  42.0804  1.00312522118013
GALAXY 2 (G-2)          
1 14365U 83098A   24181.54475698  .00000104  00000+0  00000+0 0  9994
2 14365  14.1171 347.3304 0007684 109.2742  64.0179  1.00156899125048
EKRAN 11                
1 14377U 83100A   24181.82127254 -.00000273  00000+0  00000+0 0  9992
2 14377   9.2886 309.8726 0001665 214.1580 145.9000  1.00234242 40181
INTELSAT 507            
1 14421U 83105A   24181.91175225 -.00000154  00000+0  00000+0 0  9996
2 14421  12.8371 336.0952 0007381 118.6954 245.0806  0.99689697130087
SL-12 R/B(2)            
1 14548U 83118F   24181.93799472  .00000040  00000+0  00000+0 0  9991
2 14548   9.9316 315.9301 0044228 327.5960  32.6582  1.00254478130692
RADUGA 14               
1 14725U 84016A   24181.91943536 -.00000182  00000+0  00000+0 0  9994
2 14725   9.9664 315.7888 0005256 157.8864 219.2985  1.00290731110913
COSMOS 1540             
1 14783U 84022A   24181.90870646 -.00000125  00000+0  00000+0 0  9992
2 14783  10.8345 310.9130 0007867 228.4473 144.0645  1.00283190113835
COSMOS 1546             
1 14867U 84031A   24180.90813104 -.00000050  00000+0  00000+0 0  9997
2 14867  10.0618 316.4352 0021485   1.8970 356.2555  1.00263061 40164
STTW-T2                 
1 14899U 84035A   24182.10991605  .00000050  00000+0  00000+0 0  9992
2 14899  10.6886 322.6487 0010609 168.8864 196.5920  1.00263193122902
GORIZONT 9              
1 14940U 84041A   24181.87341214 -.00000287  00000+0  00000+0 0  9997
2 14940  10.1111 317.2364 0004908 237.5812 134.6267  1.00263597114839
ZHONGXING-5             
1 14985U 84049A   24181.64739907  .00000083  00000+0  00000+0 0  9992
2 14985  14.6362 353.7543 0010309 203.6213 157.1208  0.99990523124132
RADUGA 15               
1 15057U 84063A   24181.81993781  .00000115  00000+0  00000+0 0  9996
2 15057  10.1080 316.7957 0005744 182.9629  94.3924  1.00301652133900
GORIZONT 10             
1 15144U 84078A   24181.74170486 -.00000274  00000+0  00000+0 0  9997
2 15144  10.2296 318.2671 0000781 236.0388 308.5012  1.00314440147380
HIMAWARI-3 (GMS-3)      
1 15152U 84080A   24181.94603917 -.00000112  00000+0  00000+0 0  9992
2 15152  11.7142 328.4751 0009328 134.2462  62.0143  0.99826349145473
SL-12 R/B(2)            
1 15181U 84078F   24181.87676804 -.00000313  00000+0  00000+0 0  9991
2 15181  10.3014 318.6301 0024687 190.3974 186.8808  1.00207379115824
TELSTAR 302             
1 15237U 84093D   24181.71290035 -.00000128  00000+0  00000+0 0  9995
2 15237  14.5217 350.7347 0006973 143.9709 212.9815  0.99786702 39274
GALAXY 3 (G-3)          
1 15308U 84101A   24181.91298303 -.00000092  00000+0  00000+0 0  9992
2 15308  14.4963 350.4803 0005158  68.1597 270.7985  0.99829386 39312
ZHONGXING-5R            
1 15385U 84114A   24181.98285222 -.00000163  00000+0  00000+0 0  9993
2 15385  14.8156 357.4596 0010406  87.6009 279.3002  0.99752744119819
GORIZONT 11             
1 15484U 85007A   24181.50466102  .00000107  00000+0  00000+0 0  9998
2 15484  10.4486 320.3629 0004506 184.1365   5.6021  1.00162724145439
